NORAD_CAT_ID,OBJECT_NAME,OBJECT_TYPE,EPOCH,MEAN_MOTION,ECCENTRICITY,INCLINATION,RA_OF_ASC_NODE,ARG_OF_PERICENTER,MEAN_ANOMALY,BSTAR,MEAN_MOTION_DOT,MEAN_MOTION_DDOT,TLE_LINE0,TLE_LINE1,TLE_LINE2,SEMIMAJOR_AXIS,PERIOD,APOGEE,PERIGEE,DECAYED
53611.0,STARLINK-4650,PAYLOAD,2023-08-08 20:20:25,15.08838688,0.0001368,53.2162,151.424,119.003,241.1099,0.00020962,3.05e-05,0.0,0 STARLINK-4650,1 53611U 22104Z   23220.84751618  .00003050  00000-0  20962-3 0  9994,2 53611  53.2162 151.4240 0001368 119.0030 241.1099 15.08838688 52576,6917.884,95.438,540.696,538.803,0.0
53611.0,STARLINK-4650,PAYLOAD,2023-08-09 05:52:43,15.08854193,0.0001444,53.2154,149.6394,110.4427,249.6721,0.00036119,5.467e-05,0.0,0 STARLINK-4650,1 53611U 22104Z   23221.24495007  .00005467  00000-0  36119-3 0  9991,2 53611  53.2154 149.6394 0001444 110.4427 249.6721 15.08854193 52637,6917.837,95.437,540.701,538.703,0.0
53611.0,STARLINK-4650,PAYLOAD,2023-08-10 04:08:09,15.08840003,0.00042,53.2148,145.4747,68.8105,291.3336,0.00072207,0.00011223,0.0,0 STARLINK-4650,1 53611U 22104Z   23222.17232876  .00011223  00000-0  72207-3 0  9992,2 53611  53.2148 145.4747 0004200  68.8105 291.3336 15.08840003 52774,6917.88,95.438,542.651,536.84,0.0
53611.0,STARLINK-4650,PAYLOAD,2023-08-10 12:05:04,15.08833151,0.0001663,53.2147,143.9876,91.7415,268.3767,0.00011693,1.573e-05,0.0,0 STARLINK-4650,1 53611U 22104Z   23222.50351887  .00001573  00000-0  11693-3 0  9992,2 53611  53.2147 143.9876 0001663  91.7415 268.3767 15.08833151 52822,6917.901,95.438,540.917,538.616,0.0
53611.0,STARLINK-4650,PAYLOAD,2023-08-12 00:38:56,15.08836929,0.0001111,53.2143,137.1482,97.4522,262.6597,0.00017099,2.434e-05,0.0,0 STARLINK-4650,1 53611U 22104Z   23224.02704244  .00002434  00000-0  17099-3 0  9993,2 53611  53.2143 137.1482 0001111  97.4522 262.6597 15.08836929 53056,6917.89,95.438,540.523,538.986,0.0
53611.0,STARLINK-4650,PAYLOAD,2023-08-13 00:29:43,15.0885216,0.0001186,53.2149,132.6872,97.8303,262.2823,0.00036828,5.58e-05,0.0,0 STARLINK-4650,1 53611U 22104Z   23225.02063730  .00005580  00000-0  36828-3 0  9998,2 53611  53.2149 132.6872 0001186  97.8303 262.2823 15.08852160 53208,6917.843,95.437,540.529,538.888,0.0
53611.0,STARLINK-4650,PAYLOAD,2023-08-14 01:55:52,15.08871191,0.0001156,53.2166,127.928,86.1869,273.9255,-0.00060784,-9.957e-05,0.0,0 STARLINK-4650,1 53611U 22104Z   23226.08046418 -.00009957  00000-0 -60784-3 0  9991,2 53611  53.2166 127.9280 0001156  86.1869 273.9255 15.08871191 53362,6917.785,95.436,540.45,538.85,0.0
53611.0,STARLINK-4650,PAYLOAD,2023-08-14 03:31:16,15.08849956,0.0001261,53.2162,127.6341,91.7293,268.3844,0.00012035,1.629e-05,0.0,0 STARLINK-4650,1 53611U 22104Z   23226.14671662  .00001629  00000-0  12035-3 0  9995,2 53611  53.2162 127.6341 0001261  91.7293 268.3844 15.08849956 53370,6917.85,95.437,540.587,538.843,0.0
53611.0,STARLINK-4650,PAYLOAD,2023-08-15 00:11:17,15.0883908,0.000141,53.2169,123.7681,96.1882,263.927,-3.6353e-05,-8.66e-06,0.0,0 STARLINK-4650,1 53611U 22104Z   23227.00784060 -.00000866  00000-0 -36353-4 0  9992,2 53611  53.2169 123.7681 0001410  96.1882 263.9270 15.08839080 53506,6917.883,95.438,540.724,538.773,0.0
53611.0,STARLINK-4650,PAYLOAD,2023-08-16 01:37:27,15.08843419,0.0001541,53.2171,119.0129,103.8812,256.2352,0.00011375,1.523e-05,0.0,0 STARLINK-4650,1 53611U 22104Z   23228.06768110  .00001523  00000-0  11375-3 0  9992,2 53611  53.2171 119.0129 0001541 103.8812 256.2352 15.08843419 53662,6917.87,95.437,540.801,538.669,0.0
53611.0,STARLINK-4650,PAYLOAD,2023-08-18 01:19:01,15.08846535,0.0001297,53.2158,110.0896,88.7382,271.3759,9.9703e-05,1.3e-05,0.0,0 STARLINK-4650,1 53611U 22104Z   23230.05487846  .00001300  00000-0  99703-4 0  9993,2 53611  53.2158 110.0896 0001297  88.7382 271.3759 15.08846535 53964,6917.86,95.437,540.623,538.828,0.0
53611.0,STARLINK-4650,PAYLOAD,2023-08-18 18:48:16,15.08835473,0.0001306,53.2155,106.8194,87.6763,272.4378,4.4953e-05,4.28e-06,0.0,0 STARLINK-4650,1 53611U 22104Z   23230.78352532  .00000428  00000-0  44953-4 0  9993,2 53611  53.2155 106.8194 0001306  87.6763 272.4378 15.08835473 54078,6917.894,95.438,540.663,538.856,0.0
53611.0,STARLINK-4650,PAYLOAD,2023-08-19 01:09:48,15.08842517,0.0001338,53.2155,105.6298,90.393,269.7216,0.00016821,2.39e-05,0.0,0 STARLINK-4650,1 53611U 22104Z   23231.04848245  .00002390  00000-0  16821-3 0  9996,2 53611  53.2155 105.6298 0001338  90.3930 269.7216 15.08842517 54114,6917.873,95.437,540.663,538.812,0.0
53611.0,STARLINK-4650,PAYLOAD,2023-08-19 18:39:03,15.08841158,0.0001866,53.2164,102.3609,100.2115,259.9087,-0.00013575,-2.448e-05,0.0,0 STARLINK-4650,1 53611U 22104Z   23231.77712646 -.00002448  00000-0 -13575-3 0  9990,2 53611  53.2164 102.3609 0001866 100.2115 259.9087 15.08841158 54225,6917.877,95.437,541.033,538.451,0.0
53611.0,STARLINK-4650,PAYLOAD,2023-08-20 21:40:36,15.08845927,0.000146,53.2162,97.3036,97.0346,263.0812,0.00019886,2.879e-05,0.0,0 STARLINK-4650,1 53611U 22104Z   23232.90320503  .00002879  00000-0  19886-3 0  9990,2 53611  53.2162  97.3036 0001460  97.0346 263.0812 15.08845927 54397,6917.862,95.437,540.737,538.717,0.0
53611.0,STARLINK-4650,PAYLOAD,2023-08-21 19:56:01,15.0883667,0.0001394,53.2161,93.1404,90.7387,269.3764,2.7016e-05,1.42e-06,0.0,0 STARLINK-4650,1 53611U 22104Z   23233.83057103  .00000142  00000-0  27016-4 0  9992,2 53611  53.2161  93.1404 0001394  90.7387 269.3764 15.08836670 54536,6917.891,95.438,540.72,538.791,0.0
53611.0,STARLINK-4650,PAYLOAD,2023-08-23 00:32:57,15.08849067,0.0001373,53.2164,87.7868,85.9774,274.1375,0.00015881,2.241e-05,0.0,0 STARLINK-4650,1 53611U 22104Z   23235.02288534  .00002241  00000-0  15881-3 0  9997,2 53611  53.2164  87.7868 0001373  85.9774 274.1375 15.08849067 54711,6917.853,95.437,540.667,538.768,0.0
53611.0,STARLINK-4650,PAYLOAD,2023-08-24 13:06:49,15.0883846,0.0001333,53.2171,80.946,89.1584,270.9561,4.1989e-05,3.8e-06,0.0,0 STARLINK-4650,1 53611U 22104Z   23236.54641107  .00000380  00000-0  41989-4 0  9995,2 53611  53.2171  80.9460 0001333  89.1584 270.9561 15.08838460 55631,6917.885,95.438,540.672,538.828,0.0
53611.0,STARLINK-4650,PAYLOAD,2023-08-25 00:14:31,15.08843827,0.0001433,53.217,78.8656,98.4728,261.6427,7.9276e-05,9.74e-06,0.0,0 STARLINK-4650,1 53611U 22104Z   23237.01008858  .00000974  00000-0  79276-4 0  9997,2 53611  53.2170  78.8656 0001433  98.4728 261.6427 15.08843827 55010,6917.869,95.437,540.725,538.742,0.0
53611.0,STARLINK-4650,PAYLOAD,2023-08-25 19:19:09,15.08835825,0.0001345,53.2155,75.2973,85.6295,274.4851,-1.6251e-06,-3.14e-06,0.0,0 STARLINK-4650,1 53611U 22104Z   23237.80497571 -.00000314  00000-0 -16251-5 0  9993,2 53611  53.2155  75.2973 0001345  85.6295 274.4851 15.08835825 55130,6917.893,95.438,540.689,538.828,0.0
53611.0,STARLINK-4650,PAYLOAD,2023-08-26 12:48:24,15.08840865,0.0001363,53.2163,72.0268,81.0854,279.0292,0.00013378,1.842e-05,0.0,0 STARLINK-4650,1 53611U 22104Z   23238.53361560  .00001842  00000-0  13378-3 0  9992,2 53611  53.2163  72.0268 0001363  81.0854 279.0292 15.08840865 55930,6917.878,95.437,540.686,538.8,0.0
53611.0,STARLINK-4650,PAYLOAD,2023-08-26 19:09:56,15.08845031,0.0001593,53.2163,70.8379,88.466,271.6515,0.00019383,2.799e-05,0.0,0 STARLINK-4650,1 53611U 22104Z   23238.79857375  .00002799  00000-0  19383-3 0  9998,2 53611  53.2163  70.8379 0001593  88.4660 271.6515 15.08845031 55970,6917.865,95.437,540.832,538.628,0.0
53611.0,STARLINK-4650,PAYLOAD,2023-08-27 17:25:20,15.08842614,0.0001422,53.2164,66.6759,75.5296,284.5854,0.00017217,2.453e-05,0.0,0 STARLINK-4650,1 53611U 22104Z   23239.72593556  .00002453  00000-0  17217-3 0  9991,2 53611  53.2164  66.6759 0001422  75.5296 284.5854 15.08842614 55422,6917.872,95.437,540.721,538.754,0.0
53611.0,STARLINK-4650,PAYLOAD,2023-08-27 19:00:43,15.08843347,0.000134,53.2163,66.3778,81.1678,278.9466,0.00012936,1.772e-05,0.0,0 STARLINK-4650,1 53611U 22104Z   23239.79217456  .00001772  00000-0  12936-3 0  9996,2 53611  53.2163  66.3778 0001340  81.1678 278.9466 15.08843347 56123,6917.87,95.437,540.662,538.808,0.0
53611.0,STARLINK-4650,PAYLOAD,2023-08-28 18:51:30,15.08843515,0.0001312,53.2171,61.9161,97.9249,262.1892,6.962e-05,8.2e-06,0.0,0 STARLINK-4650,1 53611U 22104Z   23240.78577302  .00000820  00000-0  69620-4 0  9992,2 53611  53.2171  61.9161 0001312  97.9249 262.1892 15.08843515 55581,6917.87,95.437,540.642,538.827,0.0
53611.0,STARLINK-4650,PAYLOAD,2023-08-29 17:06:55,15.08838267,0.0001698,53.2175,57.7541,77.5984,282.5198,4.5703e-05,4.39e-06,0.0,0 STARLINK-4650,1 53611U 22104Z   23241.71313942  .00000439  00000-0  45703-4 0  9996,2 53611  53.2175  57.7541 0001698  77.5984 282.5198 15.08838267 55726,6917.886,95.438,540.925,538.576,0.0
53611.0,STARLINK-4650,PAYLOAD,2023-08-30 18:33:04,15.08844347,0.000124,53.2185,52.9957,85.0668,275.0466,0.00011155,1.488e-05,0.0,0 STARLINK-4650,1 53611U 22104Z   23242.77297452  .00001488  00000-0  11155-3 0  9998,2 53611  53.2185  52.9957 0001240  85.0668 275.0466 15.08844347 56576,6917.867,95.437,540.59,538.874,0.0
53611.0,STARLINK-4650,PAYLOAD,2023-08-30 23:19:14,15.08849712,0.0001327,53.2178,52.1022,82.7274,277.3869,0.00015155,2.125e-05,0.0,0 STARLINK-4650,1 53611U 22104Z   23242.97169005  .00002125  00000-0  15155-3 0  9995,2 53611  53.2178  52.1022 0001327  82.7274 277.3869 15.08849712 55916,6917.851,95.437,540.634,538.798,0.0
53611.0,STARLINK-4650,PAYLOAD,2023-08-31 12:02:20,15.08828418,0.0001297,53.2167,49.7234,85.7618,274.3522,-4.602e-05,-1.02e-05,0.0,0 STARLINK-4650,1 53611U 22104Z   23243.50162352 -.00001020  00000-0 -46020-4 0  9994,2 53611  53.2167  49.7234 0001297  85.7618 274.3522 15.08828418 55993,6917.916,95.438,540.678,538.884,0.0
53611.0,STARLINK-4650,PAYLOAD,2023-08-31 19:59:15,15.08838909,0.0001178,53.217,48.2365,77.5709,282.5415,2.0066e-05,3.2e-07,0.0,0 STARLINK-4650,1 53611U 22104Z   23243.83281909  .00000032  00000-0  20066-4 0  9992,2 53611  53.2170  48.2365 0001178  77.5709 282.5415 15.08838909 56735,6917.884,95.438,540.564,538.934,0.0
